H1 CPF  1  DGF 2022 09 09 14  7521 larets     NONE      
H2   304206 5557    27944 2022 09 09 00 00 00 2022 09 16 00 00 00    30 1 1  0 0 0
H5  0.0650
H9
10 0 59836   7200.000000  0      -2325962.855      -1060565.085       6575854.906
10 0 59836   7230.000000  0      -2539758.813      -1053566.414       6497875.208
10 0 59836   7260.000000  0      -2750949.384      -1044571.736       6413270.539
10 0 59836   7290.000000  0      -2959312.239      -1033602.082       6322127.405
10 0 59836   7320.000000  0      -3164628.010      -1020681.442       6224538.939
10 0 59836   7350.000000  0      -3366680.523      -1005836.723       6120604.814
10 0 59836   7380.000000  0      -3565257.027       -989097.717       6010431.139
10 0 59836   7410.000000  0      -3760148.421       -970497.047       5894130.360
10 0 59836   7440.000000  0      -3951149.478       -950070.124       5771821.144
10 0 59836   7470.000000  0      -4138059.064       -927855.094       5643628.267
10 0 59836   7500.000000  0      -4320680.360       -903892.779       5509682.484
10 0 59836   7530.000000  0      -4498821.069       -878226.617       5370120.399
10 0 59836   7560.000000  0      -4672293.618       -850902.601       5225084.326
10 0 59836   7590.000000  0      -4840915.367       -821969.207       5074722.152
10 0 59836   7620.000000  0      -5004508.799       -791477.328       4919187.186
10 0 59836   7650.000000  0      -5162901.721       -759480.199       4758638.005
10 0 59836   7680.000000  0      -5315927.445       -726033.319       4593238.291
10 0 59836   7710.000000  0      -5463424.965       -691194.372       4423156.669
10 0 59836   7740.000000  0      -5605239.137       -655023.141       4248566.531
10 0 59836   7770.000000  0      -5741220.840       -617581.424       4069645.869
10 0 59836   7800.000000  0      -5871227.139       -578932.944       3886577.090
10 0 59836   7830.000000  0      -5995121.445       -539143.257       3699546.834
10 0 59836   7860.000000  0      -6112773.661       -498279.658       3508745.788
10 0 59836   7890.000000  0      -6224060.325       -456411.087       3314368.490
10 0 59836   7920.000000  0      -6328864.750       -413608.022       3116613.130
10 0 59836   7950.000000  0      -6427077.153       -369942.384       2915681.349
10 0 59836   7980.000000  0      -6518594.776       -325487.428       2711778.032
10 0 59836   8010.000000  0      -6603321.997       -280317.638       2505111.089
10 0 59836   8040.000000  0      -6681170.438       -234508.622       2295891.248
10 0 59836   8070.000000  0      -6752059.057       -188136.998       2084331.833
10 0 59836   8100.000000  0      -6815914.238       -141280.293       1870648.544
10 0 59836   8130.000000  0      -6872669.875        -94016.820       1655059.233
10 0 59836   8160.000000  0      -6922267.438        -46425.576       1437783.677
10 0 59836   8190.000000  0      -6964656.037          1413.882       1219043.351
10 0 59836   8220.000000  0      -6999792.479         49421.543        999061.196
10 0 59836   8250.000000  0      -7027641.308         97517.064        778061.389
10 0 59836   8280.000000  0      -7048174.846        145619.884        556269.108
10 0 59836   8310.000000  0      -7061373.218        193649.340        333910.298
10 0 59836   8340.000000  0      -7067224.371        241524.783        111211.436
10 0 59836   8370.000000  0      -7065724.082        289165.702       -111600.705
10 0 59836   8400.000000  0      -7056875.958        336491.829       -334299.292
10 0 59836   8430.000000  0      -7040691.426        383423.266       -556657.669
10 0 59836   8460.000000  0      -7017189.714        429880.593       -778449.587
10 0 59836   8490.000000  0      -6986397.825        475784.985       -999449.445
10 0 59836   8520.000000  0      -6948350.498        521058.327      -1219432.512
10 0 59836   8550.000000  0      -6903090.168        565623.323      -1438175.160
10 0 59836   8580.000000  0      -6850666.912        609403.613      -1655455.096
10 0 59836   8610.000000  0      -6791138.396        652323.877      -1871051.583
10 0 59836   8640.000000  0      -6724569.808        694309.952      -2084745.675
10 0 59836   8670.000000  0      -6651033.781        735288.934      -2296320.441
10 0 59836   8700.000000  0      -6570610.302        775189.287      -2505561.196
10 0 59836   8730.000000  0      -6483386.621        813940.948      -2712255.713
10 0 59836   8760.000000  0      -6389457.142        851475.427      -2916194.449
10 0 59836   8790.000000  0      -6288923.308        887725.907      -3117170.748
10 0 59836   8820.000000  0      -6181893.482        922627.341      -3314981.049
10 0 59836   8850.000000  0      -6068482.827        956116.546      -3509425.090
10 0 59836   8880.000000  0      -5948813.170        988132.295      -3700306.106
10 0 59836   8910.000000  0      -5823012.866       1018615.408      -3887431.029
10 0 59836   8940.000000  0      -5691216.647       1047508.836      -4070610.676
10 0 59836   8970.000000  0      -5553565.476       1074757.749      -4249659.937
10 0 59836   9000.000000  0      -5410206.380       1100309.610      -4424397.958
10 0 59836   9030.000000  0      -5261292.294       1124114.258      -4594648.316
10 0 59836   9060.000000  0      -5106981.880       1146123.978      -4760239.193
10 0 59836   9090.000000  0      -4947439.360       1166293.573      -4921003.540
10 0 59836   9120.000000  0      -4782834.329       1184580.432      -5076779.238
10 0 59836   9150.000000  0      -4613341.570       1200944.594      -5227409.254
10 0 59836   9180.000000  0      -4439140.869       1215348.809      -5372741.790
10 0 59836   9210.000000  0      -4260416.815       1227758.592      -5512630.427
10 0 59836   9240.000000  0      -4077358.603       1238142.280      -5646934.269
10 0 59836   9270.000000  0      -3890159.830       1246471.078      -5775518.075
10 0 59836   9300.000000  0      -3699018.289       1252719.105      -5898252.384
10 0 59836   9330.000000  0      -3504135.751       1256863.434      -6015013.640
10 0 59836   9360.000000  0      -3305717.762       1258884.130      -6125684.302
10 0 59836   9390.000000  0      -3103973.420       1258764.285      -6230152.957
10 0 59836   9420.000000  0      -2899115.162       1256490.051      -6328314.428
10 0 59836   9450.000000  0      -2691358.535       1252050.664      -6420069.871
10 0 59836   9480.000000  0      -2480921.971       1245438.472      -6505326.866
10 0 59836   9510.000000  0      -2268026.554       1236648.952      -6583999.508
10 0 59836   9540.000000  0      -2052895.794       1225680.725      -6656008.473
10 0 59836   9570.000000  0      -1835755.397       1212535.564      -6721281.100
10 0 59836   9600.000000  0      -1616833.034       1197218.407      -6779751.452
10 0 59836   9630.000000  0      -1396358.104       1179737.350      -6831360.381
10 0 59836   9660.000000  0      -1174561.504       1160103.655      -6876055.585
10 0 59836   9690.000000  0       -951675.388       1138331.742      -6913791.651
10 0 59836   9720.000000  0       -727932.932       1114439.180      -6944530.101
10 0 59836   9750.000000  0       -503568.099       1088446.674      -6968239.427
10 0 59836   9780.000000  0       -278815.406       1060378.055      -6984895.125
10 0 59836   9810.000000  0        -53909.683       1030260.252      -6994479.721
10 0 59836   9840.000000  0        170914.164        998123.270      -6996982.799
10 0 59836   9870.000000  0        395421.397        964000.167      -6992401.013
10 0 59836   9900.000000  0        619377.686        927927.013      -6980738.100
10 0 59836   9930.000000  0        842549.358        889942.860      -6962004.873
10 0 59836   9960.000000  0       1064703.631        850089.698      -6936219.217
10 0 59836   9990.000000  0       1285608.854        808412.415      -6903406.070
10 0 59836  10020.000000  0       1505034.742        764958.743      -6863597.406
10 0 59836  10050.000000  0       1722752.612        719779.211      -6816832.212
10 0 59836  10080.000000  0       1938535.613        672927.086      -6763156.454
10 0 59836  10110.000000  0       2152158.971        624458.318      -6702623.046
10 0 59836  10140.000000  0       2363400.213        574431.477      -6635291.801
10 0 59836  10170.000000  0       2572039.405        522907.687      -6561229.379
10 0 59836  10200.000000  0       2777859.381        469950.557      -6480509.228
10 0 59836  10230.000000  0       2980645.962        415626.105      -6393211.521
10 0 59836  10260.000000  0       3180188.177        360002.681      -6299423.083
10 0 59836  10290.000000  0       3376278.492        303150.886      -6199237.321
10 0 59836  10320.000000  0       3568713.019        245143.486      -6092754.138
10 0 59836  10350.000000  0       3757291.738        186055.327      -5980079.843
10 0 59836  10380.000000  0       3941818.700        125963.247      -5861327.058
10 0 59836  10410.000000  0       4122102.240         64945.980      -5736614.616
10 0 59836  10440.000000  0       4297955.181          3084.064      -5606067.457
10 0 59836  10470.000000  0       4469195.040        -59540.262      -5469816.517
10 0 59836  10500.000000  0       4635644.227       -122843.161      -5327998.601
10 0 59836  10530.000000  0       4797130.236       -186739.299      -5180756.257
10 0 59836  10560.000000  0       4953485.834       -251141.960      -5028237.637
10 0 59836  10590.000000  0       5104549.243       -315963.149      -4870596.359
10 0 59836  10620.000000  0       5250164.315       -381113.708      -4707991.363
10 0 59836  10650.000000  0       5390180.705       -446503.431      -4540586.753
10 0 59836  10680.000000  0       5524454.042       -512041.181      -4368551.644
10 0 59836  10710.000000  0       5652846.080       -577635.008      -4192059.995
10 0 59836  10740.000000  0       5775224.864       -643192.267      -4011290.439
10 0 59836  10770.000000  0       5891464.868       -708619.750      -3826426.110
99
